NORAD_CAT_ID,OBJECT_NAME,OBJECT_TYPE,EPOCH,MEAN_MOTION,ECCENTRICITY,INCLINATION,RA_OF_ASC_NODE,ARG_OF_PERICENTER,MEAN_ANOMALY,BSTAR,MEAN_MOTION_DOT,MEAN_MOTION_DDOT,TLE_LINE0,TLE_LINE1,TLE_LINE2,SEMIMAJOR_AXIS,PERIOD,APOGEE,PERIGEE,DECAYED
51992.0,STARLINK-3643,PAYLOAD,2024-08-01 18:27:08,15.08855533,0.0001934,53.2189,124.9281,127.4355,232.6813,-0.00010051,-1.888e-05,0.0,0 STARLINK-3643,1 51992U 22025AN  24214.76884378 -.00001888  00000-0 -10051-3 0  9998,2 51992  53.2189 124.9281 0001934 127.4355 232.6813 15.08855533134159,6917.833,95.437,541.036,538.36,0.0
51992.0,STARLINK-3643,PAYLOAD,2024-08-01 23:13:17,15.08851974,0.0001276,53.2177,124.0445,106.4041,253.7092,0.00011953,1.616e-05,0.0,0 STARLINK-3643,1 51992U 22025AN  24214.96755939  .00001616  00000-0  11953-3 0  9999,2 51992  53.2177 124.0445 0001276 106.4041 253.7092 15.08851974132636,6917.844,95.437,540.592,538.826,0.0
51992.0,STARLINK-3643,PAYLOAD,2024-08-02 00:48:39,15.08861072,0.0001457,53.2174,123.7455,112.5037,247.611,3.5677e-05,2.8e-06,0.0,0 STARLINK-3643,1 51992U 22025AN  24215.03379622  .00000280  00000-0  35677-4 0  9995,2 51992  53.2174 123.7455 0001457 112.5037 247.6110 15.08861072134190,6917.816,95.436,540.689,538.673,0.0
51992.0,STARLINK-3643,PAYLOAD,2024-08-02 18:17:56,15.08830474,0.0001545,53.2173,120.4738,99.9907,260.1259,5.4262e-05,5.75e-06,0.0,0 STARLINK-3643,1 51992U 22025AN  24215.76245782  .00000575  00000-0  54262-4 0  9992,2 51992  53.2173 120.4738 0001545  99.9907 260.1259 15.08830474134308,6917.91,95.438,540.843,538.706,0.0
51992.0,STARLINK-3643,PAYLOAD,2024-08-02 21:28:42,15.08825905,0.0001519,53.2172,119.8794,109.5546,250.561,1.9338e-05,2e-07,0.0,0 STARLINK-3643,1 51992U 22025AN  24215.89494210  .00000020  00000-0  19338-4 0  9998,2 51992  53.2172 119.8794 0001519 109.5546 250.5610 15.08825905132775,6917.923,95.438,540.839,538.738,0.0
51992.0,STARLINK-3643,PAYLOAD,2024-08-03 00:39:29,15.08823029,0.0001221,53.217,119.2871,89.0982,271.015,5.7946e-05,6.34e-06,0.0,0 STARLINK-3643,1 51992U 22025AN  24216.02742486  .00000634  00000-0  57946-4 0  9993,2 51992  53.2170 119.2871 0001221  89.0982 271.0150 15.08823029134346,6917.932,95.439,540.642,538.953,0.0
51992.0,STARLINK-3643,PAYLOAD,2024-08-03 10:11:48,15.0883207,0.0001358,53.2173,117.5042,102.3438,257.7706,-7.7953e-06,-4.12e-06,0.0,0 STARLINK-3643,1 51992U 22025AN  24216.42486310 -.00000412  00000-0 -77953-5 0  9995,2 51992  53.2173 117.5042 0001358 102.3438 257.7706 15.08832070134407,6917.905,95.438,540.709,538.83,0.0
51992.0,STARLINK-3643,PAYLOAD,2024-08-03 21:19:29,15.08848146,0.0001297,53.2169,115.4202,84.4635,275.6505,2.6829e-05,1.39e-06,0.0,0 STARLINK-3643,1 51992U 22025AN  24216.88853322  .00000139  00000-0  26829-4 0  9995,2 51992  53.2169 115.4202 0001297  84.4635 275.6505 15.08848146134472,6917.855,95.437,540.618,538.823,0.0
51992.0,STARLINK-3643,PAYLOAD,2024-08-03 22:54:52,15.08847984,0.0001232,53.2163,115.1192,75.2281,284.8848,1.5341e-05,-4.4e-07,0.0,0 STARLINK-3643,1 51992U 22025AN  24216.95477335 -.00000044  00000-0  15341-4 0  9992,2 51992  53.2163 115.1192 0001232  75.2281 284.8848 15.08847984132935,6917.856,95.437,540.573,538.869,0.0
51992.0,STARLINK-3643,PAYLOAD,2024-08-04 10:02:34,15.08840727,0.0001407,53.2169,113.0394,90.3385,269.7768,3.4321e-05,2.58e-06,0.0,0 STARLINK-3643,1 51992U 22025AN  24217.41845420  .00000258  00000-0  34321-4 0  9993,2 51992  53.2169 113.0394 0001407  90.3385 269.7768 15.08840727133009,6917.878,95.438,540.717,538.77,0.0
51992.0,STARLINK-3643,PAYLOAD,2024-08-04 21:10:17,15.0883267,0.0001618,53.2173,110.9618,93.3649,266.7528,0.00015201,2.132e-05,0.0,0 STARLINK-3643,1 51992U 22025AN  24217.88214381  .00002132  00000-0  15201-3 0  9998,2 51992  53.2173 110.9618 0001618  93.3649 266.7528 15.08832670134627,6917.903,95.438,540.887,538.648,0.0
51992.0,STARLINK-3643,PAYLOAD,2024-08-04 22:45:40,15.08835985,0.0001623,53.2169,110.6628,84.1169,276.0008,0.00017951,2.57e-05,0.0,0 STARLINK-3643,1 51992U 22025AN  24217.94838292  .00002570  00000-0  17951-3 0  9998,2 51992  53.2169 110.6628 0001623  84.1169 276.0008 15.08835985133089,6917.893,95.438,540.88,538.635,0.0
51992.0,STARLINK-3643,PAYLOAD,2024-08-05 01:56:25,15.08856511,0.0001486,53.2162,110.0687,98.0367,262.0794,0.00050174,7.71e-05,0.0,0 STARLINK-3643,1 51992U 22025AN  24218.08085391  .00007710  00000-0  50174-3 0  9993,2 51992  53.2162 110.0687 0001486  98.0367 262.0794 15.08856511134651,6917.83,95.437,540.723,538.667,0.0
51992.0,STARLINK-3643,PAYLOAD,2024-08-05 21:01:04,15.0882747,0.0001572,53.2168,106.5011,86.8266,273.2906,-0.00013634,-2.456e-05,0.0,0 STARLINK-3643,1 51992U 22025AN  24218.87574711 -.00002456  00000-0 -13634-3 0  9993,2 51992  53.2168 106.5011 0001572  86.8266 273.2906 15.08827470134771,6917.919,95.438,540.871,538.696,0.0
51992.0,STARLINK-3643,PAYLOAD,2024-08-05 22:36:27,15.08824249,0.0002066,53.2163,106.1997,76.3845,283.7377,-0.00021007,-3.629e-05,0.0,0 STARLINK-3643,1 51992U 22025AN  24218.94198892 -.00003629  00000-0 -21007-3 0  9999,2 51992  53.2163 106.1997 0002066  76.3845 283.7377 15.08824249133230,6917.929,95.439,541.223,538.364,0.0
51992.0,STARLINK-3643,PAYLOAD,2024-08-06 00:11:50,15.08832541,0.0001776,53.2165,105.9019,79.5255,280.5937,-0.00013695,-2.467e-05,0.0,0 STARLINK-3643,1 51992U 22025AN  24219.00822753 -.00002467  00000-0 -13695-3 0  9990,2 51992  53.2165 105.9019 0001776  79.5255 280.5937 15.08832541133243,6917.903,95.438,540.997,538.54,0.0
51992.0,STARLINK-3643,PAYLOAD,2024-08-06 16:05:42,15.08839662,0.0001624,53.2153,102.9326,81.5826,278.535,0.00024736,3.651e-05,0.0,0 STARLINK-3643,1 51992U 22025AN  24219.67062741  .00003651  00000-0  24736-3 0  9998,2 51992  53.2153 102.9326 0001624  81.5826 278.5350 15.08839662134896,6917.881,95.438,540.87,538.623,0.0
51992.0,STARLINK-3643,PAYLOAD,2024-08-06 20:51:51,15.0884437,0.0001616,53.215,102.0408,82.0274,278.0901,0.00033214,5.003e-05,0.0,0 STARLINK-3643,1 51992U 22025AN  24219.86934634  .00005003  00000-0  33214-3 0  9992,2 51992  53.2150 102.0408 0001616  82.0274 278.0901 15.08844370133370,6917.867,95.437,540.85,538.614,0.0
51992.0,STARLINK-3643,PAYLOAD,2024-08-07 01:38:00,15.08858092,0.0001509,53.2148,101.1459,89.0688,271.0477,0.00091765,0.00014354,0.0,0 STARLINK-3643,1 51992U 22025AN  24220.06806342  .00014354  00000-0  91765-3 0  9994,2 51992  53.2148 101.1459 0001509  89.0688 271.0477 15.08858092134952,6917.825,95.436,540.734,538.646,0.0
51992.0,STARLINK-3643,PAYLOAD,2024-08-07 20:42:37,15.08854445,0.0002593,53.2161,97.572,139.0376,221.0811,0.00017491,2.498e-05,0.0,0 STARLINK-3643,1 51992U 22025AN  24220.86293509  .00002498  00000-0  17491-3 0  9997,2 51992  53.2161  97.5720 0002593 139.0376 221.0811 15.08854445135079,6917.836,95.437,541.495,537.907,0.0
51992.0,STARLINK-3643,PAYLOAD,2024-08-08 20:33:25,15.08845644,0.0001324,53.2153,93.119,64.7764,295.3365,0.00012404,1.687e-05,0.0,0 STARLINK-3643,1 51992U 22025AN  24221.85654064  .00001687  00000-0  12404-3 0  9992,2 51992  53.2153  93.1190 0001324  64.7764 295.3365 15.08845644135225,6917.863,95.437,540.644,538.812,0.0
51992.0,STARLINK-3643,PAYLOAD,2024-08-08 22:08:48,15.08842384,0.0001273,53.2146,92.8152,96.9257,263.188,0.00015159,2.126e-05,0.0,0 STARLINK-3643,1 51992U 22025AN  24221.92278037  .00002126  00000-0  15159-3 0  9991,2 51992  53.2146  92.8152 0001273  96.9257 263.1880 15.08842384133689,6917.873,95.437,540.619,538.857,0.0
51992.0,STARLINK-3643,PAYLOAD,2024-08-09 20:24:12,15.08840487,0.0001454,53.2177,88.6566,102.1959,257.9196,0.00010532,1.389e-05,0.0,0 STARLINK-3643,1 51992U 22025AN  24222.85014147  .00001389  00000-0  10532-3 0  9994,2 51992  53.2177  88.6566 0001454 102.1959 257.9196 15.08840487135376,6917.879,95.438,540.75,538.738,0.0
51992.0,STARLINK-3643,PAYLOAD,2024-08-09 21:59:35,15.08844417,0.0001568,53.2182,88.3576,106.856,253.2605,0.00013947,1.933e-05,0.0,0 STARLINK-3643,1 51992U 22025AN  24222.91637825  .00001933  00000-0  13947-3 0  9993,2 51992  53.2182  88.3576 0001568 106.8560 253.2605 15.08844417133835,6917.867,95.437,540.817,538.647,0.0
51992.0,STARLINK-3643,PAYLOAD,2024-08-10 01:10:21,15.088461,0.000148,53.2171,87.7595,95.9414,264.1747,0.00020237,2.935e-05,0.0,0 STARLINK-3643,1 51992U 22025AN  24223.04885898  .00002935  00000-0  20237-3 0  9996,2 51992  53.2171  87.7595 0001480  95.9414 264.1747 15.08846100133857,6917.862,95.437,540.751,538.703,0.0
51992.0,STARLINK-3643,PAYLOAD,2024-08-10 21:50:22,15.08849874,0.0001475,53.2174,83.8982,103.1194,256.9962,0.0002105,3.065e-05,0.0,0 STARLINK-3643,1 51992U 22025AN  24223.90997771  .00003065  00000-0  21050-3 0  9994,2 51992  53.2174  83.8982 0001475 103.1194 256.9962 15.08849874133981,6917.85,95.437,540.736,538.695,0.0
51992.0,STARLINK-3643,PAYLOAD,2024-08-11 07:22:41,15.08844822,0.0001319,53.217,82.1156,89.2376,270.8768,0.00015543,2.187e-05,0.0,0 STARLINK-3643,1 51992U 22025AN  24224.30741975  .00002187  00000-0  15543-3 0  9996,2 51992  53.2170  82.1156 0001319  89.2376 270.8768 15.08844822135591,6917.866,95.437,540.643,538.818,0.0
51992.0,STARLINK-3643,PAYLOAD,2024-08-11 21:41:09,15.08841701,0.0001543,53.2183,79.4427,98.4458,261.6709,-2.1507e-05,-6.3e-06,0.0,0 STARLINK-3643,1 51992U 22025AN  24224.90358200 -.00000630  00000-0 -21507-4 0  9998,2 51992  53.2183  79.4427 0001543  98.4458 261.6709 15.08841701134132,6917.875,95.437,540.808,538.673,0.0
51992.0,STARLINK-3643,PAYLOAD,2024-08-12 07:13:28,15.08829539,0.0002109,53.2169,77.6534,81.2547,278.8684,-0.00021024,-3.632e-05,0.0,0 STARLINK-3643,1 51992U 22025AN  24225.30102785 -.00003632  00000-0 -21024-3 0  9996,2 51992  53.2169  77.6534 0002109  81.2547 278.8684 15.08829539135748,6917.912,95.438,541.236,538.318,0.0
51992.0,STARLINK-3643,PAYLOAD,2024-08-12 23:07:18,15.08861434,0.0001374,53.2174,74.6809,85.1721,274.9428,0.00021995,3.216e-05,0.0,0 STARLINK-3643,1 51992U 22025AN  24225.96340847  .00003216  00000-0  21995-3 0  9994,2 51992  53.2174  74.6809 0001374  85.1721 274.9428 15.08861434135840,6917.815,95.436,540.63,538.729,0.0
